{
  "norad_id": 67927,
  "name": "STARLINK-36728",
  "history": [
    {
      "epoch": "2026-03-28T22:00:01.999584Z",
      "apogee_km": 484.26887951773915,
      "perigee_km": 482.1061900243785,
      "latitude_deg": 4.678915428491752,
      "longitude_deg": -14.769353312642986,
      "height_km": 481.8686931874094,
      "semi_major_axis_km": 6861.324534771058,
      "eccentricity": 0.0001576,
      "inclination_deg": 43.0008,
      "raan_deg": 136.5621,
      "arg_perigee_deg": 311.1429,
      "mean_anomaly_deg": 55.7552,
      "mean_motion_rev_day": 15.27533768
    },
    {
      "epoch": "2026-03-29T04:00:01.999584Z",
      "apogee_km": 483.89032528776806,
      "perigee_km": 482.3986826888013,
      "latitude_deg": -34.93020065615467,
      "longitude_deg": -159.57475490922687,
      "height_km": 492.37285234513644,
      "semi_major_axis_km": 6861.281503988284,
      "eccentricity": 0.0001087,
      "inclination_deg": 43.0005,
      "raan_deg": 135.1513,
      "arg_perigee_deg": 298.7505,
      "mean_anomaly_deg": 4.5417,
      "mean_motion_rev_day": 15.27548138
    },
    {
      "epoch": "2026-03-30T04:00:01.999584Z",
      "apogee_km": 483.62048686701655,
      "perigee_km": 482.3470628512032,
      "latitude_deg": 31.122187455390826,
      "longitude_deg": -77.98489585019344,
      "height_km": 484.0508107057792,
      "semi_major_axis_km": 6861.12077485911,
      "eccentricity": 9.28e-05,
      "inclination_deg": 43.0002,
      "raan_deg": 129.5041,
      "arg_perigee_deg": 290.2213,
      "mean_anomaly_deg": 118.8199,
      "mean_motion_rev_day": 15.27601815
    },
    {
      "epoch": "2026-03-30T06:00:02.000160Z",
      "apogee_km": 483.69621009609546,
      "perigee_km": 482.29324588035615,
      "latitude_deg": 21.345373920268706,
      "longitude_deg": 6.751359600752575,
      "height_km": 483.0861277881902,
      "semi_major_axis_km": 6861.131727988226,
      "eccentricity": 0.00010224,
      "inclination_deg": 43.0003,
      "raan_deg": 129.0342,
      "arg_perigee_deg": 301.5843,
      "mean_anomaly_deg": 206.2771,
      "mean_motion_rev_day": 15.27598157
    },
    {
      "epoch": "2026-03-30T14:00:03.000384Z",
      "apogee_km": 483.89363448311906,
      "perigee_km": 482.3804491059427,
      "latitude_deg": -2.25053414599605,
      "longitude_deg": -88.43192990150497,
      "height_km": 483.7098266576769,
      "semi_major_axis_km": 6861.274041794531,
      "eccentricity": 0.00011027,
      "inclination_deg": 43.0002,
      "raan_deg": 127.1516,
      "arg_perigee_deg": 312.3603,
      "mean_anomaly_deg": 230.8457,
      "mean_motion_rev_day": 15.2755063
    },
    {
      "epoch": "2026-03-30T22:00:00.999936Z",
      "apogee_km": 483.89744238708045,
      "perigee_km": 482.2389518668315,
      "latitude_deg": -25.185540371635796,
      "longitude_deg": 177.06091808613215,
      "height_km": 488.95720930876865,
      "semi_major_axis_km": 6861.205197126956,
      "eccentricity": 0.00012086,
      "inclination_deg": 43.0001,
      "raan_deg": 125.2672,
      "arg_perigee_deg": 285.1833,
      "mean_anomaly_deg": 293.1507,
      "mean_motion_rev_day": 15.27573621
    },
    {
      "epoch": "2026-03-31T20:00:01.999008Z",
      "apogee_km": 483.7545125361994,
      "perigee_km": 482.4055972632059,
      "latitude_deg": -29.18535403435187,
      "longitude_deg": -152.5633831339388,
      "height_km": 490.3075043040553,
      "semi_major_axis_km": 6861.217054899702,
      "eccentricity": 9.83e-05,
      "inclination_deg": 43.0001,
      "raan_deg": 120.0904,
      "arg_perigee_deg": 270.2802,
      "mean_anomaly_deg": 315.053,
      "mean_motion_rev_day": 15.27569661
    },
    {
      "epoch": "2026-04-01T12:16:51.274848Z",
      "apogee_km": 481.27616341535395,
      "perigee_km": 480.5806541829015,
      "latitude_deg": 1.4715545402697569e-05,
      "longitude_deg": 102.17629928413488,
      "height_km": 480.6820362541641,
      "semi_major_axis_km": 6859.065408799127,
      "eccentricity": 5.07e-05,
      "inclination_deg": 42.9948,
      "raan_deg": 116.2636,
      "arg_perigee_deg": 273.5662,
      "mean_anomaly_deg": 86.5132,
      "mean_motion_rev_day": 15.28288501
    },
    {
      "epoch": "2026-04-02T18:05:48.597216Z",
      "apogee_km": 483.1396732512976,
      "perigee_km": 482.77329085935435,
      "latitude_deg": -2.7018831800373288e-05,
      "longitude_deg": 6.6909162617306945,
      "height_km": 482.689631205079,
      "semi_major_axis_km": 6861.093482055326,
      "eccentricity": 2.67e-05,
      "inclination_deg": 43.0013,
      "raan_deg": 109.2416,
      "arg_perigee_deg": 76.7008,
      "mean_anomaly_deg": 283.3873,
      "mean_motion_rev_day": 15.2761093
    }
  ]
}